[{"OBJECT_NAME":"SAUDISAT 5A","OBJECT_ID":"2018-102A","EPOCH":"2026-03-09T23:40:00.596928","MEAN_MOTION":15.26941021,"ECCENTRICITY":0.00113651,"INCLINATION":97.3185,"RA_OF_ASC_NODE":132.4981,"ARG_OF_PERICENTER":121.7113,"MEAN_ANOMALY":238.5235,"EPHEMERIS_TYPE":0,"CLASSIFICATION_TYPE":"U","NORAD_CAT_ID":43831,"ELEMENT_SET_NO":999,"REV_AT_EPOCH":40053,"BSTAR":0.00030305233,"MEAN_MOTION_DOT":7.96e-5,"MEAN_MOTION_DDOT":0},{"OBJECT_NAME":"STARLINK-31370","OBJECT_ID":"2024-073K","EPOCH":"2026-03-09T00:54:37.681632","MEAN_MOTION":15.27574936,"ECCENTRICITY":7.163e-5,"INCLINATION":43.0011,"RA_OF_ASC_NODE":321.9034,"ARG_OF_PERICENTER":322.731,"MEAN_ANOMALY":37.3491,"EPHEMERIS_TYPE":0,"CLASSIFICATION_TYPE":"U","NORAD_CAT_ID":59520,"ELEMENT_SET_NO":999,"REV_AT_EPOCH":10607,"BSTAR":3.622421e-6,"MEAN_MOTION_DOT":-1.62e-6,"MEAN_MOTION_DDOT":0}]
